0 THOR ABLESTAR DEB
1 03752U 61015JE  13281.46592830  .00001139  00000-0  17396-2 0   894
2 03752 067.6286 210.9356 0214602 338.3840 135.6957 13.46331820180842
0 THOR ABLESTAR DEB
1 03752U 61015JE  13284.28088118  .00001268  00000-0  19260-2 0   903
2 03752 067.6286 204.7751 0214631 336.2327 099.1424 13.46342223181226
0 THOR ABLESTAR DEB
1 03752U 61015JE  13286.44022118  .00001174  00000-0  17899-2 0   914
2 03752 067.6287 200.0500 0214677 334.5850 125.0429 13.46347796181516
0 THOR ABLESTAR DEB
1 03752U 61015JE  13288.80852176  .00001485  00000-0  22395-2 0   924
2 03752 067.6287 194.8682 0214654 332.7759 083.7954 13.46356615181838
0 THOR ABLESTAR DEB
1 03752U 61015JE  13291.12353413  .00001305  00000-0  19795-2 0   935
2 03752 067.6283 189.8018 0214654 330.9986 144.3329 13.46363067182147
0 THOR ABLESTAR DEB
1 03752U 61015JE  13293.12925414  .00001287  00000-0  19526-2 0   945
2 03752 067.6283 185.4125 0214607 329.4754 145.8093 13.46368578182418
0 THOR ABLESTAR DEB
1 03752U 61015JE  13295.14554793  .00001304  00000-0  19774-2 0   953
2 03752 067.6283 180.9997 0214536 327.9424 198.5807 13.46374776182687
